OBJECT_NAME,OBJECT_ID,EPOCH,MEAN_MOTION,ECCENTRICITY,INCLINATION,RA_OF_ASC_NODE,ARG_OF_PERICENTER,MEAN_ANOMALY,EPHEMERIS_TYPE,CLASSIFICATION_TYPE,NORAD_CAT_ID,ELEMENT_SET_NO,REV_AT_EPOCH,BSTAR,MEAN_MOTION_DOT,MEAN_MOTION_DDOT
CHUANGXIN 1-02 (CX-1-02),2008-056B,2026-05-19T07:59:26.836800,14.30146240,.00133469,98.6146,165.8851,221.4985,138.5185,0,U,33434,999,91449,-.19465195E-4,-.94E-6,0
STARS (KUKAI),2009-002G,2026-05-19T02:47:52.969920,14.95524731,.00068536,98.1536,85.2469,265.4573,94.5864,0,U,33498,999,93413,.2264417E-3,.2447E-4,0
KKS-1 (KISEKI),2009-002H,2026-05-19T07:30:26.887680,14.83039360,.00086791,98.1194,61.2989,33.0500,327.1254,0,U,33499,999,93191,.10118025E-3,.767E-5,0
UK-DMC 2,2009-041C,2026-05-19T08:19:04.434240,14.75977818,.00016094,97.8800,275.0253,79.4904,280.6487,0,U,35683,999,90231,.11551536E-3,.745E-5,0
OCEANSAT-2,2009-051A,2026-05-19T05:56:44.583072,13.99650759,.00148508,98.2301,128.9898,323.4871,36.5282,0,U,35931,999,87528,.19541311E-3,.248E-5,0
SWISSCUBE,2009-051B,2026-05-19T05:27:35.745984,14.62418661,.00057786,98.4054,46.6101,312.4611,47.6100,0,U,35932,999,88492,.1264458E-3,.59E-5,0
BEESAT-1,2009-051C,2026-05-19T05:19:37.255872,14.61667178,.00045931,98.3983,46.3002,331.8843,28.2109,0,U,35933,999,88495,.10959763E-3,.496E-5,0
ITUPSAT1,2009-051E,2026-05-19T04:30:03.017088,14.60391532,.00069974,98.4068,45.4878,339.3599,20.7317,0,U,35935,999,88450,.10392571E-3,.454E-5,0
DMSP 5D-3 F18 (USA 210),2009-057A,2026-05-19T06:55:52.280256,14.14879102,.00106688,98.9028,120.1235,339.4435,20.6308,0,U,35951,999,85550,.11895895E-3,.185E-5,0
PROBA-2,2009-059B,2026-05-19T06:51:37.667232,14.54848702,.00135571,98.2448,323.0401,15.8026,344.3592,0,U,36037,999,87732,.30266923E-4,.85E-6,0
YAOGAN-7,2009-069A,2026-05-19T05:57:46.412640,14.77977178,.00256337,98.0106,25.2895,130.4201,229.9252,0,U,36110,999,88535,.44453299E-4,.269E-5,0
XIWANG-1 (HOPE-1),2009-072B,2026-05-19T06:55:01.983360,13.16439778,.00069728,100.4016,93.5849,303.5879,56.4568,0,U,36122,999,78920,.61453628E-3,.19E-5,0
COSMOS 2463,2010-017A,2026-05-19T07:18:17.003808,13.71663565,.00355657,82.9594,270.9273,208.2186,215.5155,0,U,36519,999,80397,.26315146E-4,.39E-6,0
CARTOSAT-2B,2010-035A,2026-05-19T05:47:25.258848,14.78621541,.00100221,97.9968,189.9722,286.7918,73.2193,0,U,36795,999,85557,.89895328E-4,.606E-5,0
TISAT 1,2010-035E,2026-05-19T07:06:22.148352,15.30501637,.00029502,98.0708,83.3131,41.6426,318.5037,0,U,36799,999,86328,.40672334E-3,.11916E-3,0
YAOGAN-10,2010-038A,2026-05-19T07:42:49.823136,14.85253483,.00016482,97.8990,162.9557,92.3766,359.2315,0,U,36834,999,85292,.18978298E-3,.1575E-4,0
SHIJIAN-6 04B (SJ-6 04B),2010-051B,2026-05-19T06:11:37.648032,14.99258222,.00117945,97.8703,144.3752,45.7002,314.5186,0,U,37180,999,85134,-.8516741E-5,-.166E-5,0
FENGYUN 3B,2010-059A,2026-05-19T07:33:21.786336,14.14834024,.0020912,98.9636,185.2035,268.7221,181.7905,0,U,37214,999,80334,-.73804592E-4,-.188E-5,0
COSMO-SKYMED 4,2010-060A,2026-05-19T06:42:03.585024,14.82158956,.00014277,97.8880,323.2978,85.6936,274.4440,0,U,37216,999,84028,.8706083E-4,.641E-5,0
O/OREOS (USA 219),2010-062C,2026-05-19T03:07:09.171264,14.93607354,.00127483,71.9680,146.1513,126.7738,233.4605,0,U,37224,999,11230,.11987021E-3,.1204E-4,0
RESOURCESAT-2,2011-015A,2026-05-19T05:34:16.414752,14.21605412,.00108329,98.7652,206.8718,346.9150,13.1744,0,U,37387,999,78206,.42574116E-4,.49E-6,0
YOUTHSAT,2011-015B,2026-05-19T03:50:36.396672,14.25616695,.0015706,98.3671,114.5265,68.9411,301.6407,0,U,37388,999,78350,.619942E-4,.106E-5,0
APRIZESAT 6,2011-044F,2026-05-19T07:06:26.902944,14.76870892,.00431308,98.2380,49.2043,176.5914,303.3466,0,U,37793,999,79288,.56439153E-4,.346E-5,0
JUGNU,2011-058B,2026-05-19T03:37:59.137824,14.13767405,.00187705,19.9594,124.8247,115.6487,328.0214,0,U,37839,999,75491,.51619122E-4,.366E-5,0
SRMSAT,2011-058D,2026-05-19T07:16:02.955072,14.11568819,.001159,19.9714,234.3049,246.4740,146.2455,0,U,37841,999,75373,.52817263E-4,.362E-5,0
