CHUANGXIN 1-02 (CX-1-02)
1 33434U 08056B   26139.33294950 -.00000094  00000+0 -19465-4 0  9995
2 33434  98.6146 165.8851 0013346 221.4985 138.5185 14.30146240914498
STARS (KUKAI)           
1 33498U 09002G   26139.11658530  .00002447  00000+0  22644-3 0  9995
2 33498  98.1536  85.2469 0006853 265.4573  94.5864 14.95524731934136
KKS-1 (KISEKI)          
1 33499U 09002H   26139.31281120  .00000767  00000+0  10118-3 0  9991
2 33499  98.1194  61.2989 0008679  33.0500 327.1254 14.83039360931912
UK-DMC 2                
1 35683U 09041C   26139.34657910  .00000745  00000+0  11552-3 0  9997
2 35683  97.8800 275.0253 0001609  79.4904 280.6487 14.75977818902319
OCEANSAT-2              
1 35931U 09051A   26139.24773823  .00000248  00000+0  19541-3 0  9999
2 35931  98.2301 128.9898 0014850 323.4871  36.5282 13.99650759875287
SWISSCUBE               
1 35932U 09051B   26139.22749706  .00000590  00000+0  12645-3 0  9999
2 35932  98.4054  46.6101 0005778 312.4611  47.6100 14.62418661884925
BEESAT-1                
1 35933U 09051C   26139.22195898  .00000496  00000+0  10960-3 0  9990
2 35933  98.3983  46.3002 0004593 331.8843  28.2109 14.61667178884954
ITUPSAT1                
1 35935U 09051E   26139.18753492  .00000454  00000+0  10393-3 0  9991
2 35935  98.4068  45.4878 0006997 339.3599  20.7317 14.60391532884509
DMSP 5D-3 F18 (USA 210) 
1 35951U 09057A   26139.28879954  .00000185  00000+0  11896-3 0  9998
2 35951  98.9028 120.1235 0010668 339.4435  20.6308 14.14879102855506
PROBA-2                 
1 36037U 09059B   26139.28585263  .00000085  00000+0  30267-4 0  9996
2 36037  98.2448 323.0401 0013557  15.8026 344.3592 14.54848702877322
YAOGAN-7                
1 36110U 09069A   26139.24845385  .00000269  00000+0  44453-4 0  9995
2 36110  98.0106  25.2895 0025633 130.4201 229.9252 14.77977178885356
XIWANG-1 (HOPE-1)       
1 36122U 09072B   26139.28821740  .00000190  00000+0  61454-3 0  9997
2 36122 100.4016  93.5849 0006972 303.5879  56.4568 13.16439778789204
COSMOS 2463             
1 36519U 10017A   26139.30436347  .00000039  00000+0  26315-4 0  9996
2 36519  82.9594 270.9273 0035565 208.2186 215.5155 13.71663565803978
CARTOSAT-2B             
1 36795U 10035A   26139.24126457  .00000606  00000+0  89895-4 0  9995
2 36795  97.9968 189.9722 0010022 286.7918  73.2193 14.78621541855578
TISAT 1                 
1 36799U 10035E   26139.29608968  .00011916  00000+0  40672-3 0  9991
2 36799  98.0708  83.3131 0002950  41.6426 318.5037 15.30501637863281
YAOGAN-10               
1 36834U 10038A   26139.32140999  .00001575  00000+0  18978-3 0  9997
2 36834  97.8990 162.9557 0001648  92.3766 359.2315 14.85253483852922
SHIJIAN-6 04B (SJ-6 04B)
1 37180U 10051B   26139.25807463 -.00000166  00000+0 -85167-5 0  9998
2 37180  97.8703 144.3752 0011794  45.7002 314.5186 14.99258222851344
FENGYUN 3B              
1 37214U 10059A   26139.31483549 -.00000188  00000+0 -73805-4 0  9995
2 37214  98.9636 185.2035 0020912 268.7221 181.7905 14.14834024803346
COSMO-SKYMED 4          
1 37216U 10060A   26139.27920816  .00000641  00000+0  87061-4 0  9998
2 37216  97.8880 323.2978 0001427  85.6936 274.4440 14.82158956840282
O/OREOS (USA 219)       
1 37224U 10062C   26139.12996726  .00001204  00000+0  11987-3 0  9995
2 37224  71.9680 146.1513 0012748 126.7738 233.4605 14.93607354112300
RESOURCESAT-2           
1 37387U 11015A   26139.23213443  .00000049  00000+0  42574-4 0  9997
2 37387  98.7652 206.8718 0010832 346.9150  13.1744 14.21605412782060
YOUTHSAT                
1 37388U 11015B   26139.16014348  .00000106  00000+0  61994-4 0  9994
2 37388  98.3671 114.5265 0015706  68.9411 301.6407 14.25616695783506
APRIZESAT 6             
1 37793U 11044F   26139.29614471  .00000346  00000+0  56439-4 0  9997
2 37793  98.2380  49.2043 0043130 176.5914 303.3466 14.76870892792888
JUGNU                   
1 37839U 11058B   26139.15137891  .00000366  00000+0  51619-4 0  9991
2 37839  19.9594 124.8247 0018770 115.6487 328.0214 14.13767405754916
SRMSAT                  
1 37841U 11058D   26139.30281198  .00000362  00000+0  52817-4 0  9998
2 37841  19.9714 234.3049 0011590 246.4740 146.2455 14.11568819753730
